[{"OBJECT_NAME":"TSAT-1A","OBJECT_ID":"2024-066A","EPOCH":"2026-03-09T22:56:57.116832","MEAN_MOTION":15.33219384,"ECCENTRICITY":0.00111833,"INCLINATION":45.6179,"RA_OF_ASC_NODE":302.0275,"ARG_OF_PERICENTER":264.5913,"MEAN_ANOMALY":95.3706,"EPHEMERIS_TYPE":0,"CLASSIFICATION_TYPE":"U","NORAD_CAT_ID":59442,"ELEMENT_SET_NO":999,"REV_AT_EPOCH":10653,"BSTAR":0.00047082724,"MEAN_MOTION_DOT":0.00015138,"MEAN_MOTION_DDOT":0},{"OBJECT_NAME":"STARLINK-32801","OBJECT_ID":"2025-034G","EPOCH":"2026-03-09T22:44:54.481056","MEAN_MOTION":15.30183304,"ECCENTRICITY":0.00013355,"INCLINATION":53.1573,"RA_OF_ASC_NODE":257.1174,"ARG_OF_PERICENTER":96.1512,"MEAN_ANOMALY":263.9641,"EPHEMERIS_TYPE":0,"CLASSIFICATION_TYPE":"U","NORAD_CAT_ID":63035,"ELEMENT_SET_NO":999,"REV_AT_EPOCH":5911,"BSTAR":0.001184157,"MEAN_MOTION_DOT":0.00034859,"MEAN_MOTION_DDOT":0}]
